STARLINK-37627          
1 69315U 26119V   26157.91670139 -.02359209  00000+0 -99609-2 0  9996
2 69315  97.2838 183.1944 0001536  80.0109 138.9400 15.88757623  2397
STARLINK-37738          
1 69316U 26119W   26157.91670139 -.02422316  00000+0 -11409-1 0  9998
2 69316  97.2836 183.1942 0001650  89.7387 128.5595 15.86065423  2393
STARLINK-37799          
1 69317U 26119X   26157.91670139 -.01244358  00000+0 -55958-2 0  9994
2 69317  97.2836 183.1957 0001299  87.8392 134.1767 15.86499161  2354
STARLINK-37802          
1 69318U 26119Y   26157.91670139 -.02372059  00000+0 -10179-1 0  9991
2 69318  97.2841 183.1984 0001728  87.3421 140.7817 15.88454559  2393
STARLINK-37803          
1 69319U 26119Z   26157.91670139 -.02338551  00000+0 -99429-2 0  9997
2 69319  97.2842 183.1998 0001781  96.1837 134.6803 15.88580283  2355
GUOWANG TEST OBJECT A   
1 69320U 26120A   26157.09855477  .00012167  00000+0  32226-3 0  9991
2 69320  54.9973  77.6770 0009486 290.5105  69.4905 15.38777591   985
GUOWANG TEST OBJECT B   
1 69321U 26120B   26155.27875762  .00027005  00000+0  69390-3 0  9998
2 69321  55.0006  85.8667 0009100 296.4175  63.5919 15.39121370   705
GUOWANG TEST OBJECT C   
1 69322U 26120C   26157.48544250  .00024073  00000+0  61196-3 0  9997
2 69322  54.9971  75.9132 0009929 306.7989  53.2128 15.39507724  1046
GUOWANG TEST OBJECT D   
1 69323U 26120D   26155.66644343  .00032137  00000+0  80800-3 0  9993
2 69323  55.0029  84.1123 0008002 301.7889  58.2360 15.39704502   764
QIANFAN-163             
1 69325U 26121A   26157.63237313  .00000031  00000+0  24513-4 0  9998
2 69325  89.0163 301.5834 0019084 218.2148 141.7657 13.60350929   724
QIANFAN-164             
1 69326U 26121B   26157.63178367  .00000133  00000+0  16046-3 0  9996
2 69326  89.0161 301.5829 0018448 219.6890 140.2917 13.60504179   720
SZ-22 MODULE            
1 69328U 25272C   26157.35658609  .00026540  00000+0  32428-3 0  9997
2 69328  41.4811  27.9298 0008030 359.5995   0.4836 15.59786263  1635
